[{"OBJECT_NAME":"IRIDIUM 110","OBJECT_ID":"2018-047F","EPOCH":"2026-03-09T16:39:54.331776","MEAN_MOTION":14.34217414,"ECCENTRICITY":0.00023666,"INCLINATION":86.3979,"RA_OF_ASC_NODE":130.0337,"ARG_OF_PERICENTER":86.5409,"MEAN_ANOMALY":273.6057,"EPHEMERIS_TYPE":0,"CLASSIFICATION_TYPE":"U","NORAD_CAT_ID":43481,"ELEMENT_SET_NO":999,"REV_AT_EPOCH":40821,"BSTAR":-8.01159e-6,"MEAN_MOTION_DOT":-3.0e-8,"MEAN_MOTION_DDOT":0},{"OBJECT_NAME":"SL-16 DEB","OBJECT_ID":"1992-093JH","EPOCH":"2026-03-07T01:27:15.692256","MEAN_MOTION":14.13638089,"ECCENTRICITY":0.01115158,"INCLINATION":71.1344,"RA_OF_ASC_NODE":0.1864,"ARG_OF_PERICENTER":101.3681,"MEAN_ANOMALY":275.5023,"EPHEMERIS_TYPE":0,"CLASSIFICATION_TYPE":"U","NORAD_CAT_ID":23302,"ELEMENT_SET_NO":999,"REV_AT_EPOCH":63978,"BSTAR":0.0010918039,"MEAN_MOTION_DOT":2.142e-5,"MEAN_MOTION_DDOT":0}]
